{
  "type": "FeatureCollection",
  "features": [
    {
      "type": "Feature",
      "properties": {
        "norad_id": 34492,
        "name": "IRIDIUM 33 DEB",
        "group": "iridium-33-debris",
        "lat": 29.850984967362717,
        "lon": 150.79369232754718,
        "alt_km": 763.8629988154353,
        "timestamp": "2025-12-17T04:57:44.746544+00:00",
        "meta_object_name": "IRIDIUM 33 DEB",
        "meta_object_id": "1997-051GH",
        "meta_epoch": "2025-12-16T23:27:51.526944",
        "meta_mean_motion": 14.25813721,
        "meta_eccentricity": 0.01887461,
        "meta_inclination": 86.471,
        "meta_ra_of_asc_node": 332.9158,
        "meta_arg_of_pericenter": 224.4111,
        "meta_mean_anomaly": 192.488,
        "meta_ephemeris_type": 0,
        "meta_classification_type": "U",
        "meta_norad_cat_id": 34492,
        "meta_element_set_no": 999,
        "meta_rev_at_epoch": 85119,
        "meta_bstar": 0.0027700414,
        "meta_mean_motion_dot": 7.961e-05,
        "meta_mean_motion_ddot": 0,
        "tle_line1": "1 34492U 97051GH  25350.97767971  .00007961  00000+0  27700-2 0  9992",
        "tle_line2": "2 34492  86.4710 332.9158 0188746 224.4111 192.4880 14.25813721851190"
      },
      "geometry": {
        "type": "Point",
        "coordinates": [
          150.79369232754718,
          29.850984967362717
        ]
      }
    },
    {
      "type": "Feature",
      "properties": {
        "norad_id": 34497,
        "name": "IRIDIUM 33 DEB",
        "group": "iridium-33-debris",
        "lat": 58.07841318172945,
        "lon": 56.49161616571427,
        "alt_km": 797.5049206773574,
        "timestamp": "2025-12-17T04:57:44.746553+00:00",
        "meta_object_name": "IRIDIUM 33 DEB",
        "meta_object_id": "1997-051GN",
        "meta_epoch": "2025-12-16T03:35:34.476576",
        "meta_mean_motion": 14.27464272,
        "meta_eccentricity": 0.00784657,
        "meta_inclination": 86.2776,
        "meta_ra_of_asc_node": 50.9446,
        "meta_arg_of_pericenter": 328.4277,
        "meta_mean_anomaly": 60.2954,
        "meta_ephemeris_type": 0,
        "meta_classification_type": "U",
        "meta_norad_cat_id": 34497,
        "meta_element_set_no": 999,
        "meta_rev_at_epoch": 86932,
        "meta_bstar": 0.00047338082,
        "meta_mean_motion_dot": 1.218e-05,
        "meta_mean_motion_ddot": 0,
        "tle_line1": "1 34497U 97051GN  25350.14970459  .00001218  00000+0  47338-3 0  9992",
        "tle_line2": "2 34497  86.2776  50.9446 0078465 328.4277  60.2954 14.27464272869329"
      },
      "geometry": {
        "type": "Point",
        "coordinates": [
          56.49161616571427,
          58.07841318172945
        ]
      }
    },
    {
      "type": "Feature",
      "properties": {
        "norad_id": 34508,
        "name": "IRIDIUM 33 DEB",
        "group": "iridium-33-debris",
        "lat": 31.110550424418584,
        "lon": 102.94498794470512,
        "alt_km": 790.471221157034,
        "timestamp": "2025-12-17T04:57:44.746562+00:00",
        "meta_object_name": "IRIDIUM 33 DEB",
        "meta_object_id": "1997-051GZ",
        "meta_epoch": "2025-12-16T18:47:57.463008",
        "meta_mean_motion": 14.38460571,
        "meta_eccentricity": 0.00664067,
        "meta_inclination": 86.3704,
        "meta_ra_of_asc_node": 100.9292,
        "meta_arg_of_pericenter": 159.9314,
        "meta_mean_anomaly": 200.4519,
        "meta_ephemeris_type": 0,
        "meta_classification_type": "U",
        "meta_norad_cat_id": 34508,
        "meta_element_set_no": 999,
        "meta_rev_at_epoch": 87367,
        "meta_bstar": 0.0010003224,
        "meta_mean_motion_dot": 3.151e-05,
        "meta_mean_motion_ddot": 0,
        "tle_line1": "1 34508U 97051GZ  25350.78330397  .00003151  00000+0  10003-2 0  9992",
        "tle_line2": "2 34508  86.3704 100.9292 0066406 159.9314 200.4519 14.38460571873678"
      },
      "geometry": {
        "type": "Point",
        "coordinates": [
          102.94498794470512,
          31.110550424418584
        ]
      }
    },
    {
      "type": "Feature",
      "properties": {
        "norad_id": 34521,
        "name": "IRIDIUM 33 DEB",
        "group": "iridium-33-debris",
        "lat": -69.88843360153699,
        "lon": -141.46209561228864,
        "alt_km": 688.7926637121864,
        "timestamp": "2025-12-17T04:57:44.746571+00:00",
        "meta_object_name": "IRIDIUM 33 DEB",
        "meta_object_id": "1997-051HN",
        "meta_epoch": "2025-12-16T19:37:02.270496",
        "meta_mean_motion": 14.63402496,
        "meta_eccentricity": 0.00020447,
        "meta_inclination": 86.3799,
        "meta_ra_of_asc_node": 28.7533,
        "meta_arg_of_pericenter": 194.297,
        "meta_mean_anomaly": 165.8185,
        "meta_ephemeris_type": 0,
        "meta_classification_type": "U",
        "meta_norad_cat_id": 34521,
        "meta_element_set_no": 999,
        "meta_rev_at_epoch": 88532,
        "meta_bstar": 0.00063886562,
        "meta_mean_motion_dot": 3.324e-05,
        "meta_mean_motion_ddot": 0,
        "tle_line1": "1 34521U 97051HN  25350.81738739  .00003324  00000+0  63887-3 0  9994",
        "tle_line2": "2 34521  86.3799  28.7533 0002044 194.2970 165.8185 14.63402496885328"
      },
      "geometry": {
        "type": "Point",
        "coordinates": [
          -141.46209561228864,
          -69.88843360153699
        ]
      }
    },
    {
      "type": "Feature",
      "properties": {
        "norad_id": 34525,
        "name": "IRIDIUM 33 DEB",
        "group": "iridium-33-debris",
        "lat": 78.99578430930355,
        "lon": -154.10175774979732,
        "alt_km": 737.1232812104881,
        "timestamp": "2025-12-17T04:57:44.746581+00:00",
        "meta_object_name": "IRIDIUM 33 DEB",
        "meta_object_id": "1997-051HS",
        "meta_epoch": "2025-12-16T03:39:56.355840",
        "meta_mean_motion": 14.42913658,
        "meta_eccentricity": 0.00065914,
        "meta_inclination": 86.3727,
        "meta_ra_of_asc_node": 45.3871,
        "meta_arg_of_pericenter": 87.2888,
        "meta_mean_anomaly": 301.3893,
        "meta_ephemeris_type": 0,
        "meta_classification_type": "U",
        "meta_norad_cat_id": 34525,
        "meta_element_set_no": 999,
        "meta_rev_at_epoch": 88137,
        "meta_bstar": 0.00032204715,
        "meta_mean_motion_dot": 1.096e-05,
        "meta_mean_motion_ddot": 0,
        "tle_line1": "1 34525U 97051HS  25350.15273560  .00001096  00000+0  32205-3 0  9995",
        "tle_line2": "2 34525  86.3727  45.3871 0006591  87.2888 301.3893 14.42913658881371"
      },
      "geometry": {
        "type": "Point",
        "coordinates": [
          -154.10175774979732,
          78.99578430930355
        ]
      }
    },
    {
      "type": "Feature",
      "properties": {
        "norad_id": 34529,
        "name": "IRIDIUM 33 DEB",
        "group": "iridium-33-debris",
        "lat": -41.64671490348163,
        "lon": 30.265855414788472,
        "alt_km": 766.5251081386168,
        "timestamp": "2025-12-17T04:57:44.746590+00:00",
        "meta_object_name": "IRIDIUM 33 DEB",
        "meta_object_id": "1997-051HW",
        "meta_epoch": "2025-12-16T04:09:03.226464",
        "meta_mean_motion": 14.4061845,
        "meta_eccentricity": 0.00052348,
        "meta_inclination": 86.3638,
        "meta_ra_of_asc_node": 33.9483,
        "meta_arg_of_pericenter": 166.2156,
        "meta_mean_anomaly": 193.9188,
        "meta_ephemeris_type": 0,
        "meta_classification_type": "U",
        "meta_norad_cat_id": 34529,
        "meta_element_set_no": 999,
        "meta_rev_at_epoch": 88191,
        "meta_bstar": 0.00010343684,
        "meta_mean_motion_dot": 3.5e-06,
        "meta_mean_motion_ddot": 0,
        "tle_line1": "1 34529U 97051HW  25350.17295401  .00000350  00000+0  10344-3 0  9991",
        "tle_line2": "2 34529  86.3638  33.9483 0005234 166.2156 193.9188 14.40618450881919"
      },
      "geometry": {
        "type": "Point",
        "coordinates": [
          30.265855414788472,
          -41.64671490348163
        ]
      }
    },
    {
      "type": "Feature",
      "properties": {
        "norad_id": 34538,
        "name": "IRIDIUM 33 DEB",
        "group": "iridium-33-debris",
        "lat": -8.060169343894268,
        "lon": -175.87167545664886,
        "alt_km": 766.8878221077948,
        "timestamp": "2025-12-17T04:57:44.746599+00:00",
        "meta_object_name": "IRIDIUM 33 DEB",
        "meta_object_id": "1997-051JF",
        "meta_epoch": "2025-12-16T12:08:56.673600",
        "meta_mean_motion": 14.42671094,
        "meta_eccentricity": 0.00324408,
        "meta_inclination": 86.2768,
        "meta_ra_of_asc_node": 3.9067,
        "meta_arg_of_pericenter": 315.1115,
        "meta_mean_anomaly": 197.0404,
        "meta_ephemeris_type": 0,
        "meta_classification_type": "U",
        "meta_norad_cat_id": 34538,
        "meta_element_set_no": 999,
        "meta_rev_at_epoch": 87810,
        "meta_bstar": 0.00069604721,
        "meta_mean_motion_dot": 2.347e-05,
        "meta_mean_motion_ddot": 0,
        "tle_line1": "1 34538U 97051JF  25350.50621150  .00002347  00000+0  69605-3 0  9994",
        "tle_line2": "2 34538  86.2768   3.9067 0032440 315.1115 197.0404 14.42671094878104"
      },
      "geometry": {
        "type": "Point",
        "coordinates": [
          -175.87167545664886,
          -8.060169343894268
        ]
      }
    }
  ]
}